{
  "type": "FeatureCollection",
  "features": [
    {
      "type": "Feature",
      "properties": {
        "norad_id": 34434,
        "name": "COSMOS 2251 DEB",
        "group": "cosmos-2251-debris",
        "lat": -74.04932254557654,
        "lon": -71.75450799125207,
        "alt_km": 1005.1967789758792,
        "timestamp": "2025-12-07T03:52:32.896865+00:00",
        "meta_object_name": "COSMOS 2251 DEB",
        "meta_object_id": "1993-036SB",
        "meta_epoch": "2025-12-06T11:41:40.452864",
        "meta_mean_motion": 13.89745492,
        "meta_eccentricity": 0.02757193,
        "meta_inclination": 74.063,
        "meta_ra_of_asc_node": 20.7572,
        "meta_arg_of_pericenter": 159.5034,
        "meta_mean_anomaly": 335.2797,
        "meta_ephemeris_type": 0,
        "meta_classification_type": "U",
        "meta_norad_cat_id": 34434,
        "meta_element_set_no": 999,
        "meta_rev_at_epoch": 83879,
        "meta_bstar": 0.0042403861,
        "meta_mean_motion_dot": 7.051e-05,
        "meta_mean_motion_ddot": 0,
        "tle_line1": "1 34434U 93036SB  25340.48727376  .00007051  00000+0  42404-2 0  9995",
        "tle_line2": "2 34434  74.0630  20.7572 0275719 159.5034 335.2797 13.89745492838794"
      },
      "geometry": {
        "type": "Point",
        "coordinates": [
          -71.75450799125207,
          -74.04932254557654
        ]
      }
    },
    {
      "type": "Feature",
      "properties": {
        "norad_id": 34446,
        "name": "COSMOS 2251 DEB",
        "group": "cosmos-2251-debris",
        "lat": -20.829621860727258,
        "lon": 61.492847900997994,
        "alt_km": 756.755220653683,
        "timestamp": "2025-12-07T03:52:32.896875+00:00",
        "meta_object_name": "COSMOS 2251 DEB",
        "meta_object_id": "1993-036SP",
        "meta_epoch": "2025-12-06T13:04:01.492608",
        "meta_mean_motion": 14.49341664,
        "meta_eccentricity": 0.00514411,
        "meta_inclination": 74.0423,
        "meta_ra_of_asc_node": 68.8991,
        "meta_arg_of_pericenter": 208.3307,
        "meta_mean_anomaly": 151.5054,
        "meta_ephemeris_type": 0,
        "meta_classification_type": "U",
        "meta_norad_cat_id": 34446,
        "meta_element_set_no": 999,
        "meta_rev_at_epoch": 88604,
        "meta_bstar": 0.00030711919,
        "meta_mean_motion_dot": 1.164e-05,
        "meta_mean_motion_ddot": 0,
        "tle_line1": "1 34446U 93036SP  25340.54446172  .00001164  00000+0  30712-3 0  9996",
        "tle_line2": "2 34446  74.0423  68.8991 0051441 208.3307 151.5054 14.49341664886041"
      },
      "geometry": {
        "type": "Point",
        "coordinates": [
          61.492847900997994,
          -20.829621860727258
        ]
      }
    },
    {
      "type": "Feature",
      "properties": {
        "norad_id": 34449,
        "name": "COSMOS 2251 DEB",
        "group": "cosmos-2251-debris",
        "lat": -58.9983318302307,
        "lon": 53.34693479735915,
        "alt_km": 607.4345105206503,
        "timestamp": "2025-12-07T03:52:32.896885+00:00",
        "meta_object_name": "COSMOS 2251 DEB",
        "meta_object_id": "1993-036SS",
        "meta_epoch": "2025-12-06T09:15:57.191904",
        "meta_mean_motion": 14.94276409,
        "meta_eccentricity": 0.00239577,
        "meta_inclination": 74.0327,
        "meta_ra_of_asc_node": 83.365,
        "meta_arg_of_pericenter": 130.0383,
        "meta_mean_anomaly": 317.2692,
        "meta_ephemeris_type": 0,
        "meta_classification_type": "U",
        "meta_norad_cat_id": 34449,
        "meta_element_set_no": 999,
        "meta_rev_at_epoch": 88598,
        "meta_bstar": 0.0058557369,
        "meta_mean_motion_dot": 0.00063771,
        "meta_mean_motion_ddot": 0,
        "tle_line1": "1 34449U 93036SS  25340.38607861  .00063771  00000+0  58557-2 0  9993",
        "tle_line2": "2 34449  74.0327  83.3650 0023957 130.0383 317.2692 14.94276409885982"
      },
      "geometry": {
        "type": "Point",
        "coordinates": [
          53.34693479735915,
          -58.9983318302307
        ]
      }
    },
    {
      "type": "Feature",
      "properties": {
        "norad_id": 34451,
        "name": "COSMOS 2251 DEB",
        "group": "cosmos-2251-debris",
        "lat": -67.76423842939985,
        "lon": -36.4785793282477,
        "alt_km": 600.6287512146109,
        "timestamp": "2025-12-07T03:52:32.896896+00:00",
        "meta_object_name": "COSMOS 2251 DEB",
        "meta_object_id": "1993-036SU",
        "meta_epoch": "2025-12-06T13:53:45.402144",
        "meta_mean_motion": 14.94992412,
        "meta_eccentricity": 0.00251785,
        "meta_inclination": 74.0469,
        "meta_ra_of_asc_node": 100.2913,
        "meta_arg_of_pericenter": 124.3045,
        "meta_mean_anomaly": 236.0528,
        "meta_ephemeris_type": 0,
        "meta_classification_type": "U",
        "meta_norad_cat_id": 34451,
        "meta_element_set_no": 999,
        "meta_rev_at_epoch": 88543,
        "meta_bstar": 0.0051411356,
        "meta_mean_motion_dot": 0.00056993,
        "meta_mean_motion_ddot": 0,
        "tle_line1": "1 34451U 93036SU  25340.57899771  .00056993  00000+0  51411-2 0  9990",
        "tle_line2": "2 34451  74.0469 100.2913 0025178 124.3045 236.0528 14.94992412885436"
      },
      "geometry": {
        "type": "Point",
        "coordinates": [
          -36.4785793282477,
          -67.76423842939985
        ]
      }
    },
    {
      "type": "Feature",
      "properties": {
        "norad_id": 34452,
        "name": "COSMOS 2251 DEB",
        "group": "cosmos-2251-debris",
        "lat": 17.824623022318377,
        "lon": -160.3563172515352,
        "alt_km": 544.984742781995,
        "timestamp": "2025-12-07T03:52:32.896906+00:00",
        "meta_object_name": "COSMOS 2251 DEB",
        "meta_object_id": "1993-036SV",
        "meta_epoch": "2025-12-06T08:58:53.077152",
        "meta_mean_motion": 15.11435338,
        "meta_eccentricity": 0.00670686,
        "meta_inclination": 74.0354,
        "meta_ra_of_asc_node": 195.9903,
        "meta_arg_of_pericenter": 273.6477,
        "meta_mean_anomaly": 142.4359,
        "meta_ephemeris_type": 0,
        "meta_classification_type": "U",
        "meta_norad_cat_id": 34452,
        "meta_element_set_no": 999,
        "meta_rev_at_epoch": 90566,
        "meta_bstar": 0.0013026368,
        "meta_mean_motion_dot": 0.00023281,
        "meta_mean_motion_ddot": 0,
        "tle_line1": "1 34452U 93036SV  25340.37422543  .00023281  00000+0  13026-2 0  9992",
        "tle_line2": "2 34452  74.0354 195.9903 0067068 273.6477 142.4359 15.11435338905660"
      },
      "geometry": {
        "type": "Point",
        "coordinates": [
          -160.3563172515352,
          17.824623022318377
        ]
      }
    },
    {
      "type": "Feature",
      "properties": {
        "norad_id": 34453,
        "name": "COSMOS 2251 DEB",
        "group": "cosmos-2251-debris",
        "lat": 53.36448837960063,
        "lon": 134.36326055911536,
        "alt_km": 358.4427762550222,
        "timestamp": "2025-12-07T03:52:32.896916+00:00",
        "meta_object_name": "COSMOS 2251 DEB",
        "meta_object_id": "1993-036SW",
        "meta_epoch": "2025-12-06T15:22:21.753984",
        "meta_mean_motion": 15.6562036,
        "meta_eccentricity": 0.00197223,
        "meta_inclination": 74.1124,
        "meta_ra_of_asc_node": 113.0071,
        "meta_arg_of_pericenter": 343.737,
        "meta_mean_anomaly": 16.3216,
        "meta_ephemeris_type": 0,
        "meta_classification_type": "U",
        "meta_norad_cat_id": 34453,
        "meta_element_set_no": 999,
        "meta_rev_at_epoch": 88771,
        "meta_bstar": 0.013848587,
        "meta_mean_motion_dot": 0.01577439,
        "meta_mean_motion_ddot": 0,
        "tle_line1": "1 34453U 93036SW  25340.64052956  .01577439  00000+0  13849-1 0  9992",
        "tle_line2": "2 34453  74.1124 113.0071 0019722 343.7370  16.3216 15.65620360887715"
      },
      "geometry": {
        "type": "Point",
        "coordinates": [
          134.36326055911536,
          53.36448837960063
        ]
      }
    },
    {
      "type": "Feature",
      "properties": {
        "norad_id": 34454,
        "name": "COSMOS 2251 DEB",
        "group": "cosmos-2251-debris",
        "lat": 66.28383536751333,
        "lon": -31.49991963516456,
        "alt_km": 751.4936951097379,
        "timestamp": "2025-12-07T03:52:32.896927+00:00",
        "meta_object_name": "COSMOS 2251 DEB",
        "meta_object_id": "1993-036SX",
        "meta_epoch": "2025-12-05T23:10:28.250400",
        "meta_mean_motion": 14.38789929,
        "meta_eccentricity": 0.00353158,
        "meta_inclination": 74.0586,
        "meta_ra_of_asc_node": 290.1127,
        "meta_arg_of_pericenter": 354.0877,
        "meta_mean_anomaly": 5.9855,
        "meta_ephemeris_type": 0,
        "meta_classification_type": "U",
        "meta_norad_cat_id": 34454,
        "meta_element_set_no": 999,
        "meta_rev_at_epoch": 87970,
        "meta_bstar": 0.00048796285,
        "meta_mean_motion_dot": 1.485e-05,
        "meta_mean_motion_ddot": 0,
        "tle_line1": "1 34454U 93036SX  25339.96560475  .00001485  00000+0  48796-3 0  9999",
        "tle_line2": "2 34454  74.0586 290.1127 0035315 354.0877   5.9855 14.38789929879708"
      },
      "geometry": {
        "type": "Point",
        "coordinates": [
          -31.49991963516456,
          66.28383536751333
        ]
      }
    }
  ]
}